des,fullname,neo,pha,spkid,moid,e,a,q,i,om,w,ma,tp,per,n,ad
2019 AW2,(2019 AW2),True,False,3837609,,0.582,2.01,0.84,8.81,96.6,307,262,2459483.681,1040,0.346,3.18
2021 EC4,(2021 EC4),True,False,54131391,,0.502,0.95,0.473,7.32,1.66,304,185,2459364.895,338,1.06,1.43
2012 LJ,(2012 LJ),True,False,3605539,,0.699,2.33,0.7,0.688,239,96.3,133,2458723.114,1300,0.278,3.95
2012 WS3,(2012 WS3),True,False,3618405,,0.279,1.11,0.801,3.87,241,86.3,20,2459176.735,428,0.842,1.42
2013 RS43,(2013 RS43),True,False,3648002,,0.334,1.46,0.972,0.936,359,24.5,30.2,2459146.547,644,0.559,1.95
2016 CD30,(2016 CD30),True,False,3741974,,0.497,1.77,0.891,5.86,132,314,17.5,2457385.762,860,0.419,2.65
2020 UT4,(2020 UT4),True,False,54076351,,0.551,1.12,0.504,0.487,217,58.8,49.1,2459087.125,435,0.827,1.74
2010 UH,(2010 UH),True,False,3549638,,0.308,1.36,0.943,0.631,295,40.1,28.2,2455444.936,581,0.62,1.78
2007 YM,(2007 YM),True,False,3398093,,0.617,2.58,0.989,0.991,59.7,11.3,2.62,2454440.462,1520,0.237,4.18
2018 WH,(2018 WH),True,False,3836268,,0.276,1.21,0.877,1.89,235,117,240,2459363.461,487,0.739,1.55
2008 LE,(2008 LE),True,False,3413111,,0.269,1.45,1.06,1.94,201,32.8,9.88,2454602.016,637,0.565,1.84
2020 SW5,(2020 SW5),True,False,54054688,,0.593,1.87,0.762,1.71,42.8,246,26.1,2459068.585,937,0.384,2.99
2020 HB3,(2020 HB3),True,False,54016644,,0.408,1.52,0.897,11.3,43.8,231,333,2459011.118,682,0.528,2.13
2012 BK14,(2012 BK14),True,False,3596043,,0.184,0.978,0.799,1.46,119,253,87.6,2455861.466,353,1.02,1.16
2014 MO68,(2014 MO68),True,False,3675146,,0.603,2.4,0.951,2.58,318,22.2,345,2456889.142,1350,0.266,3.84
2017 FB1,(2017 FB1),True,False,3771610,,0.74,2.12,0.551,5.11,349,80.5,95.1,2458902.577,1130,0.319,3.69
2020 YB1,(2020 YB1),True,False,54100906,,0.382,1.19,0.733,7.1,274,265,311,2459264.222,471,0.764,1.64
2011 AY22,(2011 AY22),True,False,3555153,,0.602,2.13,0.847,0.464,308,218,348,2455611.866,1130,0.318,3.41
2012 BU1,(2012 BU1),True,False,3595925,,0.443,1.61,0.9,0.425,294,134,144,2458901.980,749,0.481,2.33
2020 XG,(2020 XG),True,False,54097868,,0.364,0.92,0.585,1.24,256,52.6,98.1,2459112.593,322,1.12,1.26
2010 UY7,(2010 UY7),True,False,3550089,,0.15,0.897,0.762,0.457,40.1,210,109,2459106.767,310,1.16,1.03
2020 FK6,(2020 FK6),True,False,54016406,,0.442,1.15,0.644,6.76,352,80.8,50.9,2458860.519,453,0.796,1.66
2006 UU17,(2006 UU17),True,False,3352551,,0.584,2.34,0.971,2.89,209,151,6.4,2454007.330,1300,0.276,3.7
2009 HW67,(2009 HW67),True,False,3459084,,0.751,2.05,0.51,2.35,216,260,16.8,2454899.586,1070,0.336,3.59
2015 FA345,(2015 FA345),True,False,3717071,,0.582,2.36,0.99,4.7,358,157,7.2,2457077.947,1330,0.271,3.74
2011 BF40,(2011 BF40),True,False,3555911,,0.727,2.81,0.765,5.52,301,264,350,2455641.465,1720,0.21,4.84
2014 QC391,(2014 QC391),True,False,3685633,,0.402,1.58,0.945,2.09,345,36.7,342,2456938.060,726,0.496,2.22
2015 DQ224,(2015 DQ224),True,False,3717069,,0.527,0.779,0.369,11,149,215,96,2457005.485,251,1.43,1.19
2016 JB18,(2016 JB18),True,False,3753073,,0.149,1.12,0.956,1.89,208,305,13,2459184.767,435,0.828,1.29
2017 YO5,(2017 YO5),True,False,3795088,,0.459,1.8,0.974,5.83,91.8,345,89.7,2458980.813,882,0.408,2.62
2017 UJ43,(2017 UJ43),True,False,3788146,,0.265,1.17,0.86,2.9,45.1,67.3,123,2459042.584,462,0.779,1.48
2021 CH3,(2021 CH3),True,False,54111245,,0.511,1.39,0.68,11.7,305,88,14.5,2459176.386,599,0.601,2.1
2006 SC,(2006 SC),True,False,3342249,,0.35,1.11,0.723,10.4,351,265,107,2459072.517,429,0.839,1.5
2019 FA,(2019 FA),True,False,3840117,,0.299,1.34,0.941,1.1,174,320,68.2,2459092.813,568,0.634,1.74
2019 YV1,(2019 YV1),True,False,3943360,,0.115,1.02,0.9,8.66,88.2,274,60.1,2459138.004,374,0.961,1.13
2011 AK37,(2011 AK37),True,False,3555203,,0.66,2.84,0.964,3.62,119,322,30.4,2459053.264,1750,0.206,4.71
2012 VS76,(2012 VS76),True,False,3617713,,0.386,0.991,0.608,0.806,242,284,1.32,2459199.182,360,0.999,1.37
2018 BN6,(2018 BN6),True,False,3798973,,0.344,1.11,0.73,2.1,300,93.4,220,2459366.945,429,0.84,1.49
443104,443104 (2013 XK22),True,False,2443104,,0.203,1.05,0.833,6.99,268,266,133,2459056.566,391,0.922,1.26
2013 NH6,(2013 NH6),True,False,3644732,,0.587,1.24,0.514,24.2,98.4,69.9,48.4,2456415.269,507,0.71,1.98
2017 VJ,(2017 VJ),True,False,3789071,,0.4,1.33,0.799,4.48,218,107,46.6,2459127.883,561,0.642,1.86
2020 KU,(2020 KU),True,False,54017087,,0.26,1.29,0.955,6.63,63.1,223,114,2459030.926,536,0.672,1.63
2017 YO3,(2017 YO3),True,False,3795027,,0.349,0.753,0.49,8.65,268,19.5,353,2459204.886,238,1.51,1.02
2017 FN1,(2017 FN1),True,False,3771621,,0.578,1.47,0.619,2.25,0.441,272,10.1,2459182.314,649,0.555,2.31
2020 KC5,(2020 KC5),True,False,54017251,,0.516,2.02,0.979,4.62,70.3,204,61.8,2459020.359,1050,0.343,3.06
2020 YK3,(2020 YK3),True,False,54101721,,0.221,0.82,0.639,2.56,103,169,169,2459073.056,271,1.33,1
2009 WR52,(2009 WR52),True,False,3478352,,0.155,1.03,0.873,4.24,61,270,263,2459304.230,384,0.938,1.19
2011 DS,(2011 DS),True,False,3557829,,0.229,1.04,0.798,0.277,346,71.4,185,2459387.665,385,0.936,1.27
2017 MZ8,(2017 MZ8),True,False,3776291,,0.602,2.31,0.918,4.51,21.3,337,341,2457994.849,1280,0.281,3.7
2015 EO,(2015 EO),True,False,3712944,,0.462,1.3,0.698,4.6,350,271,320,2457152.383,540,0.667,1.9
2016 SK2,(2016 SK2),True,False,3759750,,0.394,1.36,0.825,15.5,355,291,274,2459338.189,580,0.621,1.9
2020 AW,(2020 AW),True,False,3972422,,0.234,0.808,0.619,0.357,321,316,301,2459243.749,265,1.36,0.997
2016 SA2,(2016 SA2),True,False,3759724,,0.185,1.18,0.959,4.76,183,135,144,2459014.427,466,0.772,1.39
2007 XZ9,(2007 XZ9),True,False,3397573,,0.586,2.04,0.845,3.04,248,126,15.3,2454398.251,1070,0.338,3.24
2010 HP20,(2010 HP20),True,False,3518217,,0.535,2,0.927,7.72,209,321,10.8,2455275.533,1030,0.349,3.07
2011 DV10,(2011 DV10),True,False,3558194,,0.689,2.85,0.886,8.1,160,293,11,2455567.932,1750,0.205,4.81
2020 WN5,(2020 WN5),True,False,54096684,,0.377,1.17,0.731,0.171,256,66.6,49.7,2459106.414,464,0.776,1.61
2019 DX,(2019 DX),True,False,3838850,,0.534,1.83,0.855,1.17,346,230,343,2458584.460,907,0.397,2.81
2019 JR2,(2019 JR2),True,False,3841753,,0.445,1.27,0.708,8.31,40.7,90.6,87.8,2459072.297,526,0.685,1.84
2017 HG4,(2017 HG4),True,False,3774114,,0.187,0.862,0.701,2.98,211,205,350,2459209.016,292,1.23,1.02
2007 UD6,(2007 UD6),True,False,3389466,,0.242,1.23,0.933,1.69,206,132,255,2459345.450,499,0.722,1.53
2005 SO1,(2005 SO1),True,False,3291099,,0.577,2.17,0.916,5.24,359,316,290,2459428.205,1160,0.309,3.42
2016 CY135,(2016 CY135),True,False,3742333,,0.353,1.48,0.954,1.1,173,26.5,223,2459448.920,654,0.55,2
2018 BL11,(2018 BL11),True,False,3799660,,0.495,1.68,0.846,2.07,302,123,140,2458892.711,792,0.454,2.51
2019 GD4,(2019 GD4),True,False,3840858,,0.467,1.8,0.959,0.381,320,198,267,2459429.180,881,0.409,2.64
2018 RB2,(2018 RB2),True,False,3827318,,0.326,1.38,0.93,9.22,343,312,172,2458918.549,591,0.609,1.83
2008 EV84,(2008 EV84),True,False,3406023,,0.61,2.53,0.988,13,350,206,355,2454557.577,1470,0.245,4.07
2011 TO,(2011 TO),True,False,3580964,,0.28,0.927,0.667,2.24,185,57.6,216,2459330.527,326,1.1,1.19
2015 MN11,(2015 MN11),True,False,3721409,,0.705,2.04,0.601,5.71,279,85.3,342,2457246.416,1070,0.338,3.48
2020 UX4,(2020 UX4),True,False,54076355,,0.464,1.82,0.973,0.528,156,204,31.7,2459121.712,894,0.403,2.66
2017 AA21,(2017 AA21),True,False,3766654,,0.478,1.92,1,2.33,331,174,346,2457794.485,973,0.37,2.84
2006 WV29,(2006 WV29),True,False,3360541,,0.559,1.38,0.609,1.2,75.3,82,327,2454118.248,592,0.608,2.15
2009 HC,(2009 HC),True,False,3457386,,0.126,1.04,0.909,3.78,204,270,83.6,2459110.596,387,0.93,1.17
2019 NO2,(2019 NO2),True,False,3843140,,0.577,2.36,0.998,1.47,101,159,150,2458651.084,1320,0.273,3.71
2020 LV,(2020 LV),True,False,54017418,,0.153,0.915,0.775,5.51,91.9,319,73.4,2459135.299,320,1.13,1.06
2005 TH50,(2005 TH50),True,False,3293923,,0.226,0.837,0.648,0.734,197,18.2,154,2453535.061,280,1.29,1.03
2006 WZ184,(2006 WZ184),True,False,3363228,,0.328,1.37,0.918,0.846,249,128,312,2459277.780,583,0.618,1.81
2013 RO30,(2013 RO30),True,False,3647671,,0.489,1.93,0.984,8.34,162,156,7.57,2456520.977,977,0.369,2.87
2016 GK2,(2016 GK2),True,False,3749031,,0.431,1.56,0.889,0.933,7.67,127,171,2458861.938,714,0.505,2.24
2017 UC52,(2017 UC52),True,False,3789435,,0.658,2.52,0.861,3.55,73.8,34.7,346,2458110.823,1460,0.247,4.17
2020 VO1,(2020 VO1),True,False,54087577,,0.235,1.04,0.797,3.37,226,87.1,102,2459090.348,388,0.928,1.29
2009 TU,(2009 TU),True,False,3471219,,0.559,1.73,0.761,1.56,199,106,357,2459206.396,828,0.435,2.69
2021 FU,(2021 FU),True,False,54132077,,0.59,2.41,0.988,0.134,160,42.9,330,2459312.855,1370,0.263,3.83
2015 TG24,(2015 TG24),True,False,3729233,,0.443,0.746,0.415,3.99,22,151,248,2459274.022,236,1.53,1.08
2011 CF66,(2011 CF66),True,False,3557545,,0.311,1.02,0.702,0.957,340,274,286,2455682.904,375,0.959,1.33
2014 JV79,(2014 JV79),True,False,3698570,,0.136,1.08,0.933,16.4,233,114,254,2456904.333,410,0.878,1.23
2011 BP40,(2011 BP40),True,False,3556018,,0.154,1.12,0.95,0.915,165,236,74.8,2455503.184,435,0.828,1.3
2014 OM207,(2014 OM207),True,False,3676117,,0.584,2.43,1.01,2.25,123,169,3.24,2456855.026,1380,0.26,3.85
2018 EB4,(2018 EB4),True,False,3799881,,0.619,2.32,0.885,1.46,3.02,218,272,2459517.955,1290,0.279,3.76
2004 VZ14,(2004 VZ14),True,False,3261769,,0.527,1.53,0.726,4.58,41.6,280,29.9,2453260.881,694,0.519,2.34
2021 EA,(2021 EA),True,False,54128184,,0.343,1.33,0.872,6.46,342,238,282,2459321.300,559,0.644,1.78
2007 PR25,(2007 PR25),True,True,3381347,,0.848,1.96,0.298,3.5,155,291,343,2454376.544,1000,0.359,3.63
2006 BM8,(2006 BM8),True,False,3313736,,0.531,1.54,0.724,5.2,122,282,28.6,2453707.824,700,0.514,2.36
2020 WD,(2020 WD),True,False,54088803,,0.38,1.59,0.984,0.614,202,187,25.9,2459147.908,730,0.493,2.19
2007 EO88,(2007 EO88),True,False,3371143,,0.337,1.13,0.751,5.93,356,270,103,2459075.084,440,0.817,1.52
2013 GA55,(2013 GA55),True,False,3634440,,0.455,1.65,0.896,0.475,207,299,20.1,2456349.396,771,0.467,2.4
